     3.04           N: GNSS NAV DATA    C: BDS              RINEX VERSION / TYPE
cnvtToRINEX 3.14.0  REGINA              20210125 030053 UTC PGM / RUN BY / DATE 
----------------------------------------------------------- COMMENT             
BDSA   0.1304D-07  0.0000D+00 -0.3576D-06  0.7153D-06       IONOSPHERIC CORR    
BDSB   0.1167D+06 -0.6717D+06  0.4456D+07 -0.3080D+07       IONOSPHERIC CORR    
BDUT  0.5587935447D-08-0.195399252D-13     14  786          TIME SYSTEM CORR    
     4                                                      LEAP SECONDS        
                                                            END OF HEADER       
C29 2021 01 25 02 00 00 0.343160005286D-03 0.515143483426D-11 0.000000000000D+00
     0.100000000000D+01-0.162031250000D+02 0.407302680077D-08 0.102416175311D+01
    -0.608619302511D-06 0.105199986137D-03 0.155065208673D-06 0.528261969185D+04
     0.936000000000D+05 0.242143869400D-07-0.201955845524D+01 0.433064997196D-07
     0.965305464710D+00 0.360421875000D+03 0.521093750263D+00-0.727173146823D-08
    -0.489306095849D-10 0.100000000000D+01 0.786000000000D+03 0.000000000000D+00
     0.200000000000D+01 0.000000000000D+00-0.200000002670D-09-0.200000000000D-09
     0.936000000000D+05 0.100000000000D+01 0.000000000000D+00 0.000000000000D+00
C 5 2021 01 25 02 00 00-0.619768747129D-03-0.762270246923D-10 0.000000000000D+00
     0.100000000000D+01 0.186156250000D+03-0.543701218767D-08-0.178391937620D+01
     0.610155984759D-05 0.402002129704D-03-0.155656598508D-04 0.649345588493D+04
     0.936000000000D+05-0.125728547573D-07-0.220902043587D+01 0.316649675369D-07
     0.898571390248D-01 0.471828125000D+03-0.722055188634D+00 0.655634452664D-08
    -0.964325882329D-11 0.300000000000D+01 0.786000000000D+03 0.000000000000D+00
     0.200000000000D+01 0.000000000000D+00 0.200000002670D-09-0.920000000000D-08
     0.936900000000D+05 0.000000000000D+00 0.000000000000D+00 0.000000000000D+00
C19 2021 01 25 02 00 00 0.703204888850D-03 0.137969635716D-10 0.000000000000D+00
     0.100000000000D+01-0.246093750000D+02 0.367515308488D-08 0.694160398361D+00
    -0.131316483021D-05 0.704482663423D-03 0.986550003290D-05 0.528262287140D+04
     0.936000000000D+05 0.162981450558D-07 0.913316097681D-01 0.735744833946D-07
     0.965575946560D+00 0.165000000000D+03-0.123669818992D+01-0.659813198154D-08
     0.404659712844D-09 0.100000000000D+01 0.786000000000D+03 0.000000000000D+00
     0.200000000000D+01 0.000000000000D+00 0.122000001213D-07 0.122000000000D-07
     0.936000000000D+05 0.100000000000D+01 0.000000000000D+00 0.000000000000D+00
C30 2021 01 25 02 00 00 0.435728812590D-03 0.503774799654D-11 0.000000000000D+00
     0.100000000000D+01-0.143906250000D+02 0.407088385437D-08 0.242424158630D+01
    -0.640749931335D-06 0.465008546598D-03 0.361353158951D-06 0.528261695099D+04
     0.936000000000D+05-0.833533704281D-07-0.201901753836D+01 0.232830643654D-07
     0.965246779751D+00 0.356468750000D+03-0.748078856944D-01-0.720565728741D-08
     0.357157734196D-12 0.100000000000D+01 0.786000000000D+03 0.000000000000D+00
     0.200000000000D+01 0.000000000000D+00-0.979999992268D-08-0.980000000000D-08
     0.936000000000D+05 0.100000000000D+01 0.000000000000D+00 0.000000000000D+00
C27 2021 01 25 02 00 00 0.472020707093D-03 0.632383034826D-11 0.000000000000D+00
     0.100000000000D+01-0.163437500000D+02 0.399552357245D-08 0.233877880302D+01
    -0.814441591501D-06 0.534557038918D-03 0.904314219952D-06 0.528261704826D+04
     0.936000000000D+05-0.325962901115D-07-0.198113364793D+01-0.321306288242D-07
     0.966365585851D+00 0.344984375000D+03 0.775074008189D+00-0.710743891050D-08
    -0.307155651409D-10 0.100000000000D+01 0.786000000000D+03 0.000000000000D+00
     0.200000000000D+01 0.000000000000D+00-0.449999992824D-08-0.450000000000D-08
     0.936000000000D+05 0.100000000000D+01 0.000000000000D+00 0.000000000000D+00
C20 2021 01 25 02 00 00-0.910452334210D-03-0.175859327101D-11 0.000000000000D+00
     0.100000000000D+01-0.213437500000D+02 0.372158359032D-08 0.895766361864D+00
    -0.111479312181D-05 0.608366332017D-03 0.945152714849D-05 0.528262632179D+04
     0.936000000000D+05 0.125728547573D-07 0.919515037492D-01-0.870786607265D-07
     0.965572201489D+00 0.171375000000D+03-0.676785925982D+00-0.665277711487D-08
     0.490377569051D-09 0.100000000000D+01 0.786000000000D+03 0.000000000000D+00
     0.200000000000D+01 0.000000000000D+00 0.230000001267D-07 0.230000000000D-07
     0.936000000000D+05 0.100000000000D+01 0.000000000000D+00 0.000000000000D+00
C22 2021 01 25 02 00 00-0.855726422742D-03-0.127373667169D-10 0.000000000000D+00
     0.100000000000D+01-0.254218750000D+02 0.358122060078D-08-0.130608384875D+01
    -0.116974115372D-05 0.465714954771D-03 0.987946987152D-05 0.528262358665D+04
     0.936000000000D+05 0.139698386192D-08 0.936216939136D-01-0.246800482273D-07
     0.964865306307D+00 0.165328125000D+03-0.268978101389D-01-0.649812781596D-08
     0.439304013061D-09 0.100000000000D+01 0.786000000000D+03 0.000000000000D+00
     0.200000000000D+01 0.000000000000D+00 0.165999995971D-07 0.166000000000D-07
     0.962700000000D+05 0.100000000000D+01 0.000000000000D+00 0.000000000000D+00
